0 FENGYUN 1C DEB
1 39114U 99025EWB 13288.29404962  .00002108  00000-0  12126-2 0    76
2 39114 099.0938 314.0808 0085343 077.7521 272.3631 14.08516736 34769
